    PK11U020  2023 06 20.2083  4.652709  0.094871  139.0212  264.3636    9.8123  20171014  10.0  4.0  P/2011 U2 (Bressi)                                       MPC105540
    CK11U030  2012 06  2.3609  1.074810  0.999488  287.7278  228.1532  116.7067  20171014  14.0  4.0  C/2011 U3 (PANSTARRS)                                    MPC 78186
    PK11UD4A  2011 12  2.4394  2.072093  0.629752   32.5771   40.5920   10.4808  20171014  17.5  4.0  P/2011 UA134 (Spacewatch-PANSTARRS)                      MPC 79022
    CK11UU5F  2012 07 21.1418  2.143813  0.999387  122.0319  297.5906   94.0330  20171014   9.0  4.0  C/2011 UF305 (LINEAR)                                    MPC 88325
    PK11V010  2018 10  1.7305  1.730866  0.551132  269.1478   46.8709    7.3805  20171014  15.5  4.0  P/2011 V1 (Boattini)                                     MPC 77406
    PK11V05J  2018 03 22.0948  1.507839  0.557035  315.2752  169.9185    3.9752  20171014  17.5  4.0  P/2011 VJ5 (Lemmon)                                      MPEC 2017-W73
    PK11W010  2022 02  9.4464  3.325712  0.286124  282.7898  161.8024    3.7176  20171014  11.5  4.0  P/2011 W1 (PANSTARRS)                                    MPC 82718
    PK11W020  2019 04  9.6904  2.312472  0.392591  221.2662  231.9624   13.7580  20171014  13.0  4.0  P/2011 W2 (Rinner)                                       MPC 80897
    CK11W030  2011 12 14.7746  0.006396  0.999910   55.1998  328.5473  135.5239  20171014  14.5  4.0  C/2011 W3 (Lovejoy)                                      MPC 77807
    PK11Y020  2012 03 17.4989  1.809298  0.710038  132.0368  309.4235    6.3675  20171014  15.0  4.0  P/2011 Y2 (Boattini)                                     MPC 79342
    CK11Y030  2011 08 18.4623  3.509067  0.701817  340.6028   84.8743   26.5104  20171014   8.0  4.0  C/2011 Y3 (Boattini)                                     MPC 79342
    CK12A010  2013 12  4.3370  7.603567  1.002309  192.0858  278.0304  120.9328  20171014   6.0  4.0  C/2012 A1 (PANSTARRS)                                    MPC 93583
    CK12A020  2012 11  6.3543  3.531781  0.997214  101.6793  191.4187  125.8971  20171014   8.5  4.0  C/2012 A2 (LINEAR)                                       MPC 91611
    PK12A030  2016 03 10.4003  0.580256  0.775001  218.2116  176.1318   11.3408  20171014  17.0  4.0  P/2012 A3 (SOHO)                                         MPC 80898
    PK12B010  2013 07 24.6515  3.831527  0.411924  162.4782   36.1516    7.6233  20171014   9.0  4.0  P/2012 B1 (PANSTARRS)                                    MPC 94669
    CK12B030  2011 12  6.2497  3.545338  0.999539   50.8052  252.9697  107.0565  20171014  10.0  4.0  C/2012 B3 (La Sagra)                                     MPC 82719
    CK12B98J  2012 09 21.1800  2.160448  0.874815   73.0974  124.0002    2.6355  20171014  12.5  4.0  C/2012 BJ98 (Lemmon)                                     MPC 83519
    CK12C010  2013 02  4.8220  4.834591  0.998064  279.8703  300.6161   96.2155  20171014   7.5  4.0  C/2012 C1 (McNaught)                                     MPC 89309
    CK12C020  2012 03 13.0179  0.794200  1.002752   62.4581  117.9176  162.7617  20171014  17.0  4.0  C/2012 C2 (Bruenjes)                                     MPC 80898
    PK12C030  2011 10  6.7469  3.605925  0.630111  344.9542  135.3677    9.0920            13.0  4.0  P/2012 C3 (PANSTARRS)                                    MPC 78590
    CK12C17H  2012 09 29.3769  1.287182  0.999579  137.9739  125.8136   27.7612  20171014  11.0  4.0  C/2012 CH17 (MOSS)                                       MPC 84022
    CK12E010  2011 06 30.8701  7.510014  0.993082   48.8161  286.2713  122.5927  20171014   6.5  4.0  C/2012 E1 (Hill)                                         MPC 84022
    CK12E030  2011 05  9.8113  3.839665  0.981279  103.5376    5.5110  105.5804  20171014  10.0  4.0  C/2012 E3 (PANSTARRS)                                    MPC 82318
    CK12F010  2012 02 17.9497  2.566321  0.964761  301.0013  130.3996  159.5649  20171014  14.0  4.0  C/2012 F1 (Gibbs)                                        MPC 79868
    PK12F020  2013 04 11.0093  2.889267  0.543050   33.0990  227.0890   14.7429  20171014  12.0  4.0  P/2012 F2 (PANSTARRS)                                    MPC 84931
    CK12F030  2015 04  7.0095  3.457127  1.003176  104.0508  164.6072   11.3521  20171014   6.5  4.0  C/2012 F3 (PANSTARRS)                                    MPC106343
    CK12F060  2013 03 24.8137  0.724548  0.998216  304.8262  332.6093   82.6309  20171014  10.0  4.0  C/2012 F6 (Lemmon)                                       MPC 90766
    PK12G010  2012 06  1.4325  2.584166  0.380722  286.1149  282.5440   11.6925            15.0  4.0  P/2012 G1 (PANSTARRS)                                    MPC 79344
    CK12H020  2012 05  1.7895  1.728395  0.892700  296.0178  184.0840   92.7956  20171014  15.5  4.0  C/2012 H2 (McNaught)                                     MPC 80046
    CK12J010  2012 12  6.1031  3.157303  1.000974  147.2928  235.1481   34.0942  20171014   8.0  4.0  C/2012 J1 (Catalina)                                     MPC 89726
    CK12K010  2014 08 28.0258  1.052949  1.000508  203.1176  317.7675  142.3741  20171014   5.6  3.2  C/2012 K1 (PANSTARRS)                                    MPC103843
    PK12K030  2019 08 17.9234  2.086444  0.423861  172.2501  125.8699   13.1945  20171014  15.0  4.0  P/2012 K3 (Gibbs)                                        MPC 80898
    CK12K050  2012 11 28.3536  1.144387  0.998300  139.3448  279.2709   92.7986  20171014  12.0  4.0  C/2012 K5 (LINEAR)                                       MPC103843
    CK12K060  2013 05 20.6142  3.363610  0.997862  338.9395  206.9041  135.2204  20171014   8.5  4.0  C/2012 K6 (McNaught)                                     MPC 94278
    CK12K080  2014 08 19.3638  6.466766  0.999194   75.8948  312.7880  106.1301  20171014   6.0  4.0  C/2012 K8 (Lemmon)                                       MPC100577
    CK12L010  2012 12 24.8233  2.261923  0.996161  140.2068  271.9108   87.2357  20171014  10.5  4.0  C/2012 L1 (LINEAR)                                       MPC 88326
    CK12L020  2013 05  8.3721  1.515276  0.997383  205.8768  270.3430   70.8761  20171014  10.0  4.0  C/2012 L2 (LINEAR)                                       MPC 88326
    CK12L030  2012 06 10.0999  3.043938  0.989371  106.9161   53.4162  134.1281  20171014  13.0  4.0  C/2012 L3 (LINEAR)                                       MPC 84023
    CK12L26P  2015 08 16.6958  6.535562  1.000994  145.1474  153.9850   25.3716  20171014   6.5  4.0  C/2012 LP26 (Palomar)                                    MPC107047
    PK12N00J  2012 06 12.1103  1.287260  0.847714  338.2683  315.6949   84.4565  20171014  14.5  4.0  P/2012 NJ (La Sagra)                                     MPC 88326
    CK12O00P  2012 12  3.3694  3.609193  0.994765  351.3306  267.2676  114.8418  20171014  13.5  2.0  C/2012 OP (Siding Spring)                                MPC 84625
    PK12O010  2019 03  1.9583  1.431036  0.595523  238.1595   92.1149    7.4264  20171014  17.5  4.0  P/2012 O1 (McNaught)                                     MPC 81470
    PK12O020  2019 05  6.1938  1.690177  0.532937  183.3992  120.7270   24.4879  20171014  17.0  4.0  P/2012 O2 (McNaught)                                     MPC 80899
    PK12O030  2022 05 31.5042  1.622894  0.645644  344.6490  336.4018   16.5829  20171014  16.5  4.0  P/2012 O3 (McNaught)                                     MPC 82720
    CK12Q010  2012 02  4.3533  9.466765  0.636068  138.9855  184.4247   45.2250  20171014   4.0  4.0  C/2012 Q1 (Kowalski)                                     MPC 90767
    CK12S010  2013 11 28.4381  0.012621  1.000256  345.7552  295.3234   63.3175  20171014   8.5  3.2  C/2012 S1 (ISON)                                         MPC 89726
    PK12S020  2021 11  2.3704  1.358694  0.691382  312.6505   51.1919    8.6883  20171014  17.0  4.0  P/2012 S2 (La Sagra)                                     MPC 82720
    CK12S030  2013 08 30.1813  2.308023  0.999344  183.6483  121.2409  112.9790  20171014  10.0  4.0  C/2012 S3 (PANSTARRS)                                    MPC 88327
    CK12S040  2013 06 27.1941  4.339473  0.999284  163.4618  173.1015  126.5594  20171014   8.5  4.0  C/2012 S4 (PANSTARRS)                                    MPC 88327
    PK12S06B  2020 06 19.4016  2.310490  0.401184   12.5673    8.9421   11.0143  20171014  14.0  4.0  P/2012 SB6 (Lemmon)                                      MPC 82720
    PK12T020  2013 04 23.6524  4.827890  0.159773  310.9173   73.7391   12.5539  20171014  10.0  4.0  P/2012 T2 (PANSTARRS)                                    MPC 82320
    PK12T030  2012 04 24.6537  2.368019  0.615515  195.4238  114.3964    9.5540  20171014  15.0  4.0  P/2012 T3 (PANSTARRS)                                    MPC 80900
    CK12T040  2012 10 10.9548  1.947296  0.983595  219.7688   99.4129   24.1503  20171014  13.5  4.0  C/2012 T4 (McNaught)                                     MPC 84023
    CK12T050  2013 02 24.1571  0.324737  1.000413  318.2582  230.2275   72.2755  20171014  13.0  4.0  C/2012 T5 (Bressi)                                       MPC 84023
    CK12T060  2012 08 23.3663  1.772484  0.873947  197.9457  186.1227   33.3318  20171014  15.0  4.0  C/2012 T6 (Kowalski)                                     MPC 82720
    PK12T08K  2021 10 28.1920  3.039585  0.269026  126.6822  289.1451    6.2967  20171014  13.0  4.0  P/2012 TK8 (Tenagra)                                     MPC 87914
    CK12U010  2014 07  4.8980  5.272833  0.997280   70.2172   26.9647   56.3504  20171014   7.5  4.0  C/2012 U1 (PANSTARRS)                                    MPC 95208
    PK12U020  2012 11 11.7850  3.595436  0.497628  228.6084  185.2371   10.7379  20171014  12.5  4.0  P/2012 U2 (PANSTARRS)                                    MPC 82720
    PK12U27S  2013 02  4.9270  1.819960  0.647673    1.0702   49.1713   39.3377  20171014  13.5  4.0  P/2012 US27 (Siding Spring)                              MPC 84024
